OBJECT_NAME,OBJECT_ID,EPOCH,MEAN_MOTION,ECCENTRICITY,INCLINATION,RA_OF_ASC_NODE,ARG_OF_PERICENTER,MEAN_ANOMALY,EPHEMERIS_TYPE,CLASSIFICATION_TYPE,NORAD_CAT_ID,ELEMENT_SET_NO,REV_AT_EPOCH,BSTAR,MEAN_MOTION_DOT,MEAN_MOTION_DDOT
ONEWEB-0473,2022-012AH,2026-06-03T04:53:38.781312,13.10375118,.0001887,87.8842,39.0620,82.7846,277.3496,0,U,51653,999,20747,.18357E-2,.654E-5,0
ONEWEB-0474,2022-012AJ,2026-06-03T15:41:24.619488,13.10376880,.00017936,87.8860,38.9542,73.1986,286.9338,0,U,51654,999,20752,.7210593E-3,.264E-5,0
ONEWEB-0475,2022-012AK,2026-06-03T15:06:51.877440,13.17650386,.00019034,87.9140,8.5697,69.2257,290.9078,0,U,51655,999,21190,-.6023488E-5,.11E-6,0
ONEWEB-0490,2022-138A,2026-06-03T11:42:04.796064,13.19726669,.00015846,87.9171,307.6968,93.3842,266.7472,0,U,54113,999,17502,-.24944077E-3,-.87E-6,0
ONEWEB-0492,2022-138B,2026-06-03T10:29:18.953952,13.19717593,.00021815,87.9148,307.7086,104.2111,255.9264,0,U,54114,999,17502,-.40218603E-2,-.1597E-4,0
ONEWEB-0495,2022-138C,2026-06-03T11:46:37.648128,13.19727525,.0001203,87.9159,307.7010,86.4008,273.7262,0,U,54115,999,17501,-.47461E-4,-.6E-7,0
ONEWEB-0497,2022-138D,2026-06-03T12:04:49.427904,13.19727040,.000173,87.9163,307.6896,95.1163,265.0167,0,U,54116,999,17500,.31794E-4,.26E-6,0
ONEWEB-0499,2022-138E,2026-06-03T11:40:57.817920,13.19725818,.00015265,87.9149,307.7032,87.1934,272.9373,0,U,54117,999,17501,.36810188E-3,.16E-5,0
ONEWEB-0500,2022-138F,2026-06-03T11:44:20.666112,13.19725612,.0001829,87.9180,307.6978,108.9232,251.2100,0,U,54118,999,17502,.12724E-2,.522E-5,0
ONEWEB-0501,2022-138G,2026-06-03T10:38:24.569088,13.19727393,.00016277,87.9163,307.7046,90.7614,269.3705,0,U,54119,999,17499,.6822597E-4,.4E-6,0
ONEWEB-0502,2022-138H,2026-06-02T19:44:29.699808,13.19727349,.0001682,87.9167,307.8167,88.0475,272.0850,0,U,54120,999,17493,.52026506E-4,.34E-6,0
ONEWEB-0503,2022-138J,2026-06-01T10:43:25.356864,13.19727739,.00020224,87.9166,308.0965,90.2839,269.8526,0,U,54121,999,17474,.24711561E-3,.112E-5,0
ONEWEB-0504,2022-138K,2026-06-03T11:32:59.220672,13.19726137,.00016857,87.9166,307.6964,89.8092,270.3233,0,U,54122,999,17502,.83114807E-4,.46E-6,0
ONEWEB-0505,2022-138L,2026-06-03T07:50:06.029952,13.19725389,.000153,87.9166,307.7277,85.5692,274.5616,0,U,54123,999,17498,-.8478349E-4,-.21E-6,0
ONEWEB-0506,2022-138M,2026-06-03T10:52:02.907552,13.19726455,.00015573,87.9172,307.7007,88.5260,271.6051,0,U,54124,999,17499,.13655572E-3,.68E-6,0
ONEWEB-0507,2022-138N,2026-06-03T11:21:37.015776,13.19726002,.00016153,87.9158,307.7091,92.8688,267.2630,0,U,54125,999,17504,.15128062E-4,.19E-6,0
ONEWEB-0508,2022-138P,2026-06-03T11:17:02.837472,13.19727524,.0001373,87.9157,307.7093,94.2968,265.8322,0,U,54126,999,17502,.20997336E-3,.97E-6,0
ONEWEB-0509,2022-138Q,2026-06-03T10:40:40.278432,13.19727333,.00016944,87.9162,307.7015,94.6357,265.4969,0,U,54127,999,17499,.37695012E-3,.164E-5,0
ONEWEB-0510,2022-138R,2026-06-03T06:26:41.305632,13.20773025,.00024161,87.9191,277.2087,106.2200,253.9199,0,U,54128,999,17744,.15451303E-3,.76E-6,0
ONEWEB-0511,2022-138S,2026-06-03T10:36:08.237664,13.19725483,.00019112,87.9168,307.7074,86.9050,273.2301,0,U,54129,999,17502,-.29085594E-4,.1E-7,0
ONEWEB-0512,2022-138T,2026-06-02T19:51:19.794816,13.19723002,.00017905,87.9163,307.8352,87.1194,273.0144,0,U,54130,999,17491,.47140933E-3,.202E-5,0
ONEWEB-0513,2022-138U,2026-06-03T10:40:58.628064,13.20268913,.00017308,87.9165,307.6573,64.5278,295.6034,0,U,54131,999,17490,.38365727E-3,.168E-5,0
ONEWEB-0514,2022-138V,2026-06-03T10:47:29.480064,13.19726766,.00019506,87.9168,307.7031,96.0459,264.0896,0,U,54132,999,17501,.10835806E-3,.56E-6,0
ONEWEB-0515,2022-138W,2026-06-03T07:56:21.137280,13.20771972,.00023627,87.9191,277.1917,121.7597,238.3767,0,U,54133,999,17747,-.14171103E-3,-.45E-6,0
ONEWEB-0516,2022-138X,2026-06-03T12:00:15.977952,13.19727602,.000161,87.9143,307.7024,103.2682,256.8630,0,U,54134,999,17502,.42148E-3,.182E-5,0
ONEWEB-0517,2022-138Y,2026-06-03T11:30:42.045984,13.19726757,.0002086,87.9165,307.6963,89.8865,270.2507,0,U,54135,999,17502,-.34928588E-3,-.127E-5,0
ONEWEB-0518,2022-138Z,2026-06-02T19:35:28.071168,13.19726806,.00016802,87.9155,307.8385,101.2384,258.8937,0,U,54136,999,17493,-.57843958E-4,-.1E-6,0
ONEWEB-0519,2022-138AA,2026-06-03T10:45:14.583744,13.19724476,.00019787,87.9169,307.7027,91.5039,268.6320,0,U,54137,999,17502,.53369174E-3,.227E-5,0
ONEWEB-0520,2022-138AB,2026-06-03T11:35:15.641088,13.19726628,.00015463,87.9168,307.6965,93.2630,266.8680,0,U,54138,999,17501,-.13625672E-3,-.42E-6,0
ONEWEB-0521,2022-138AC,2026-06-03T14:12:11.905344,13.19726533,.0001995,87.9162,307.6620,92.6315,267.5046,0,U,54139,999,17497,.56446E-5,.15E-6,0
